0 NEOSSAT
1 39089U 13009D   13281.67432542 -.00000029  00000-0  55300-5 0  1824
2 39089 098.6240 111.4957 0011337 329.9343 030.1183 14.33918565 32259
0 NEOSSAT
1 39089U 13009D   13282.79078613  .00000108  00000-0  54841-4 0  1839
2 39089 098.6258 112.6109 0011085 326.2287 033.8216 14.33919393 32412
0 NEOSSAT
1 39089U 13009D   13283.83746807  .00000242  00000-0  10261-3 0  1849
2 39089 098.6262 113.6558 0010967 323.3541 036.6937 14.33920244 32569
0 NEOSSAT
1 39089U 13009D   13286.34950387  .00000048  00000-0  33212-4 0  1866
2 39089 098.6281 116.1643 0010674 317.0285 043.0051 14.33919751 32923
0 NEOSSAT
1 39089U 13009D   13287.39618433  .00000257  00000-0  10799-3 0  1872
2 39089 098.6270 117.2075 0010659 313.7563 046.2738 14.33921257 33075
0 NEOSSAT
1 39089U 13009D   13288.79175941  .00000072  00000-0  41844-4 0  1881
2 39089 098.6268 118.6002 0010585 309.5197 050.5059 14.33920932 33276
0 NEOSSAT
1 39089U 13009D   13289.83843992  .00000116  00000-0  57524-4 0  1897
2 39089 098.6263 119.6446 0010396 305.7024 054.3203 14.33921429 33423
0 NEOSSAT
1 39089U 13009D   13291.09445592  .00000191  00000-0  84654-4 0  1901
2 39089 098.6264 120.8972 0010335 301.5227 058.4948 14.33922206 33609
0 NEOSSAT
1 39089U 13009D   13292.14113544  .00000119  00000-0  58682-4 0  1910
2 39089 098.6263 121.9423 0010447 298.7268 061.2839 14.33922425 33757
0 NEOSSAT
1 39089U 13009D   13293.39715150  .00000061  00000-0  37822-4 0  1929
2 39089 098.6256 123.1949 0010405 294.6052 065.4023 14.33922550 33936
0 NEOSSAT
1 39089U 13009D   13294.44383135  .00000187  00000-0  82973-4 0  1937
2 39089 098.6254 124.2385 0010270 290.5059 069.5031 14.33923419 34088
0 NEOSSAT
1 39089U 13009D   13295.56028934  .00000282  00000-0  11714-3 0  1945
2 39089 098.6253 125.3534 0010264 286.8548 073.1565 14.33924558 34245
